{
  "type": "FeatureCollection",
  "features": [
    {
      "type": "Feature",
      "properties": {
        "norad_id": 30476,
        "name": "FENGYUN 1C DEB",
        "group": "fengyun-1c-debris",
        "lat": -66.14303375859863,
        "lon": 172.13082976108583,
        "alt_km": 824.78594307596,
        "timestamp": "2025-12-02T13:52:17.538808+00:00",
        "meta_object_name": "FENGYUN 1C DEB",
        "meta_object_id": "1999-025AGP",
        "meta_epoch": "2025-12-02T02:52:50.325888",
        "meta_mean_motion": 14.20809034,
        "meta_eccentricity": 0.00448123,
        "meta_inclination": 99.1264,
        "meta_ra_of_asc_node": 12.9727,
        "meta_arg_of_pericenter": 330.4362,
        "meta_mean_anomaly": 96.7955,
        "meta_ephemeris_type": 0,
        "meta_classification_type": "U",
        "meta_norad_cat_id": 30476,
        "meta_element_set_no": 999,
        "meta_rev_at_epoch": 96694,
        "meta_bstar": 0.0016350243,
        "meta_mean_motion_dot": 3.521e-05,
        "meta_mean_motion_ddot": 0,
        "tle_line1": "1 30476U 99025AGP 25336.12002692  .00003521  00000+0  16350-2 0  9993",
        "tle_line2": "2 30476  99.1264  12.9727 0044812 330.4362  96.7955 14.20809034966947"
      },
      "geometry": {
        "type": "Point",
        "coordinates": [
          172.13082976108583,
          -66.14303375859863
        ]
      }
    },
    {
      "type": "Feature",
      "properties": {
        "norad_id": 30477,
        "name": "FENGYUN 1C DEB",
        "group": "fengyun-1c-debris",
        "lat": -17.667193604243252,
        "lon": -122.47922875636642,
        "alt_km": 1238.5379074457687,
        "timestamp": "2025-12-02T13:52:17.538819+00:00",
        "meta_object_name": "FENGYUN 1C DEB",
        "meta_object_id": "1999-025AGQ",
        "meta_epoch": "2025-12-01T11:31:26.382144",
        "meta_mean_motion": 13.23756894,
        "meta_eccentricity": 0.04310673,
        "meta_inclination": 99.4256,
        "meta_ra_of_asc_node": 59.5578,
        "meta_arg_of_pericenter": 304.0867,
        "meta_mean_anomaly": 69.5219,
        "meta_ephemeris_type": 0,
        "meta_classification_type": "U",
        "meta_norad_cat_id": 30477,
        "meta_element_set_no": 999,
        "meta_rev_at_epoch": 90570,
        "meta_bstar": 0.0030372913,
        "meta_mean_motion_dot": 2.078e-05,
        "meta_mean_motion_ddot": 0,
        "tle_line1": "1 30477U 99025AGQ 25335.48016646  .00002078  00000+0  30373-2 0  9993",
        "tle_line2": "2 30477  99.4256  59.5578 0431067 304.0867  69.5219 13.23756894905707"
      },
      "geometry": {
        "type": "Point",
        "coordinates": [
          -122.47922875636642,
          -17.667193604243252
        ]
      }
    },
    {
      "type": "Feature",
      "properties": {
        "norad_id": 30480,
        "name": "FENGYUN 1C DEB",
        "group": "fengyun-1c-debris",
        "lat": -62.99768955753303,
        "lon": 155.4011458234848,
        "alt_km": 741.2211877877098,
        "timestamp": "2025-12-02T13:52:17.538832+00:00",
        "meta_object_name": "FENGYUN 1C DEB",
        "meta_object_id": "1999-025AGS",
        "meta_epoch": "2025-12-02T07:47:42.865152",
        "meta_mean_motion": 14.33576323,
        "meta_eccentricity": 0.01658346,
        "meta_inclination": 98.2247,
        "meta_ra_of_asc_node": 351.6496,
        "meta_arg_of_pericenter": 176.6807,
        "meta_mean_anomaly": 199.829,
        "meta_ephemeris_type": 0,
        "meta_classification_type": "U",
        "meta_norad_cat_id": 30480,
        "meta_element_set_no": 999,
        "meta_rev_at_epoch": 98519,
        "meta_bstar": 0.00029320249,
        "meta_mean_motion_dot": 9.02e-06,
        "meta_mean_motion_ddot": 0,
        "tle_line1": "1 30480U 99025AGS 25336.32480168  .00000902  00000+0  29320-3 0  9990",
        "tle_line2": "2 30480  98.2247 351.6496 0165834 176.6807 199.8290 14.33576323985192"
      },
      "geometry": {
        "type": "Point",
        "coordinates": [
          155.4011458234848,
          -62.99768955753303
        ]
      }
    },
    {
      "type": "Feature",
      "properties": {
        "norad_id": 30481,
        "name": "FENGYUN 1C DEB",
        "group": "fengyun-1c-debris",
        "lat": 24.42423205649724,
        "lon": 177.9747150769182,
        "alt_km": 873.2532348536188,
        "timestamp": "2025-12-02T13:52:17.538842+00:00",
        "meta_object_name": "FENGYUN 1C DEB",
        "meta_object_id": "1999-025AGT",
        "meta_epoch": "2025-12-02T00:04:46.721856",
        "meta_mean_motion": 14.38956934,
        "meta_eccentricity": 0.02232656,
        "meta_inclination": 98.3375,
        "meta_ra_of_asc_node": 353.5971,
        "meta_arg_of_pericenter": 292.4417,
        "meta_mean_anomaly": 129.3999,
        "meta_ephemeris_type": 0,
        "meta_classification_type": "U",
        "meta_norad_cat_id": 30481,
        "meta_element_set_no": 999,
        "meta_rev_at_epoch": 98329,
        "meta_bstar": 0.00069031005,
        "meta_mean_motion_dot": 2.796e-05,
        "meta_mean_motion_ddot": 0,
        "tle_line1": "1 30481U 99025AGT 25336.00331854  .00002796  00000+0  69031-3 0  9999",
        "tle_line2": "2 30481  98.3375 353.5971 0223265 292.4417 129.3999 14.38956934983290"
      },
      "geometry": {
        "type": "Point",
        "coordinates": [
          177.9747150769182,
          24.42423205649724
        ]
      }
    },
    {
      "type": "Feature",
      "properties": {
        "norad_id": 30486,
        "name": "FENGYUN 1C DEB",
        "group": "fengyun-1c-debris",
        "lat": 29.554567934940366,
        "lon": 2.678157116488683,
        "alt_km": 321.5166084711009,
        "timestamp": "2025-12-02T13:52:17.538853+00:00",
        "meta_object_name": "FENGYUN 1C DEB",
        "meta_object_id": "1999-025AGY",
        "meta_epoch": "2025-12-02T01:38:11.279040",
        "meta_mean_motion": 15.86340289,
        "meta_eccentricity": 0.00192474,
        "meta_inclination": 98.8047,
        "meta_ra_of_asc_node": 7.0638,
        "meta_arg_of_pericenter": 231.665,
        "meta_mean_anomaly": 128.2887,
        "meta_ephemeris_type": 0,
        "meta_classification_type": "U",
        "meta_norad_cat_id": 30486,
        "meta_element_set_no": 999,
        "meta_rev_at_epoch": 1584,
        "meta_bstar": 0.0023742728,
        "meta_mean_motion_dot": 0.00597121,
        "meta_mean_motion_ddot": 0.00013466894,
        "tle_line1": "1 30486U 99025AGY 25336.06818610  .00597121  13467-3  23743-2 0  9995",
        "tle_line2": "2 30486  98.8047   7.0638 0019247 231.6650 128.2887 15.86340289 15849"
      },
      "geometry": {
        "type": "Point",
        "coordinates": [
          2.678157116488683,
          29.554567934940366
        ]
      }
    },
    {
      "type": "Feature",
      "properties": {
        "norad_id": 30489,
        "name": "FENGYUN 1C DEB",
        "group": "fengyun-1c-debris",
        "lat": 42.00048461785506,
        "lon": 179.67996270529815,
        "alt_km": 928.4450951588778,
        "timestamp": "2025-12-02T13:52:17.538863+00:00",
        "meta_object_name": "FENGYUN 1C DEB",
        "meta_object_id": "1999-025AHB",
        "meta_epoch": "2025-12-01T23:56:20.593248",
        "meta_mean_motion": 14.1579868,
        "meta_eccentricity": 0.01390067,
        "meta_inclination": 98.4692,
        "meta_ra_of_asc_node": 351.418,
        "meta_arg_of_pericenter": 296.232,
        "meta_mean_anomaly": 124.5713,
        "meta_ephemeris_type": 0,
        "meta_classification_type": "U",
        "meta_norad_cat_id": 30489,
        "meta_element_set_no": 999,
        "meta_rev_at_epoch": 97235,
        "meta_bstar": 0.00033719319,
        "meta_mean_motion_dot": 6.85e-06,
        "meta_mean_motion_ddot": 0,
        "tle_line1": "1 30489U 99025AHB 25335.99746057  .00000685  00000+0  33719-3 0  9998",
        "tle_line2": "2 30489  98.4692 351.4180 0139006 296.2320 124.5713 14.15798680972357"
      },
      "geometry": {
        "type": "Point",
        "coordinates": [
          179.67996270529815,
          42.00048461785506
        ]
      }
    },
    {
      "type": "Feature",
      "properties": {
        "norad_id": 30490,
        "name": "FENGYUN 1C DEB",
        "group": "fengyun-1c-debris",
        "lat": -18.738758913178746,
        "lon": -75.79246280058848,
        "alt_km": 467.5676559797148,
        "timestamp": "2025-12-02T13:52:17.538873+00:00",
        "meta_object_name": "FENGYUN 1C DEB",
        "meta_object_id": "1999-025AHC",
        "meta_epoch": "2025-12-02T01:58:58.314432",
        "meta_mean_motion": 15.25067442,
        "meta_eccentricity": 0.00540761,
        "meta_inclination": 98.3341,
        "meta_ra_of_asc_node": 106.5069,
        "meta_arg_of_pericenter": 158.7758,
        "meta_mean_anomaly": 201.5737,
        "meta_ephemeris_type": 0,
        "meta_classification_type": "U",
        "meta_norad_cat_id": 30490,
        "meta_element_set_no": 999,
        "meta_rev_at_epoch": 99333,
        "meta_bstar": 0.0049910329,
        "meta_mean_motion_dot": 0.00132102,
        "meta_mean_motion_ddot": 0,
        "tle_line1": "1 30490U 99025AHC 25336.08261938  .00132102  00000+0  49910-2 0  9990",
        "tle_line2": "2 30490  98.3341 106.5069 0054076 158.7758 201.5737 15.25067442993334"
      },
      "geometry": {
        "type": "Point",
        "coordinates": [
          -75.79246280058848,
          -18.738758913178746
        ]
      }
    }
  ]
}